<?xml version="1.0" encoding="UTF-8"?>
<ndm xmlns:xsi="http://www.w3.org/2001/XMLSchema-instance" xsi:noNamespaceSchemaLocation="https://sanaregistry.org/r/ndmxml_unqualified/ndmxml-2.0.0-master-2.0.xsd">
<omm id="CCSDS_OMM_VERS" version="2.0">
<header><CREATION_DATE/><ORIGINATOR/></header><body><segment><metadata><OBJECT_NAME>KUIPER-00079</OBJECT_NAME><OBJECT_ID>2025-151L</OBJECT_ID><CENTER_NAME>EARTH</CENTER_NAME><REF_FRAME>TEME</REF_FRAME><TIME_SYSTEM>UTC</TIME_SYSTEM><MEAN_ELEMENT_THEORY>SGP4</MEAN_ELEMENT_THEORY></metadata><data><meanElements><EPOCH>2025-08-18T22:00:01.999584</EPOCH><MEAN_MOTION>15.28247465</MEAN_MOTION><ECCENTRICITY>.0005103</ECCENTRICITY><INCLINATION>51.8792</INCLINATION><RA_OF_ASC_NODE>125.6067</RA_OF_ASC_NODE><ARG_OF_PERICENTER>271.9445</ARG_OF_PERICENTER><MEAN_ANOMALY>332.5802</MEAN_ANOMALY></meanElements><tleParameters><EPHEMERIS_TYPE>0</EPHEMERIS_TYPE><CLASSIFICATION_TYPE>U</CLASSIFICATION_TYPE><NORAD_CAT_ID>64826</NORAD_CAT_ID><ELEMENT_SET_NO>999</ELEMENT_SET_NO><REV_AT_EPOCH>470</REV_AT_EPOCH><BSTAR>-.3972E-3</BSTAR><MEAN_MOTION_DOT>-.11431E-3</MEAN_MOTION_DOT><MEAN_MOTION_DDOT>0</MEAN_MOTION_DDOT></tleParameters></data></segment></body></omm>
<omm id="CCSDS_OMM_VERS" version="2.0">
<header><CREATION_DATE/><ORIGINATOR/></header><body><segment><metadata><OBJECT_NAME>KUIPER-00080</OBJECT_NAME><OBJECT_ID>2025-151M</OBJECT_ID><CENTER_NAME>EARTH</CENTER_NAME><REF_FRAME>TEME</REF_FRAME><TIME_SYSTEM>UTC</TIME_SYSTEM><MEAN_ELEMENT_THEORY>SGP4</MEAN_ELEMENT_THEORY></metadata><data><meanElements><EPOCH>2025-08-18T22:26:38.210208</EPOCH><MEAN_MOTION>15.30281619</MEAN_MOTION><ECCENTRICITY>.0002968</ECCENTRICITY><INCLINATION>51.8788</INCLINATION><RA_OF_ASC_NODE>125.5368</RA_OF_ASC_NODE><ARG_OF_PERICENTER>290.8932</ARG_OF_PERICENTER><MEAN_ANOMALY>69.1733</MEAN_ANOMALY></meanElements><tleParameters><EPHEMERIS_TYPE>0</EPHEMERIS_TYPE><CLASSIFICATION_TYPE>U</CLASSIFICATION_TYPE><NORAD_CAT_ID>64827</NORAD_CAT_ID><ELEMENT_SET_NO>999</ELEMENT_SET_NO><REV_AT_EPOCH>516</REV_AT_EPOCH><BSTAR>.39124E-3</BSTAR><MEAN_MOTION_DOT>.11284E-3</MEAN_MOTION_DOT><MEAN_MOTION_DDOT>0</MEAN_MOTION_DDOT></tleParameters></data></segment></body></omm>
<omm id="CCSDS_OMM_VERS" version="2.0">
<header><CREATION_DATE/><ORIGINATOR/></header><body><segment><metadata><OBJECT_NAME>KUIPER-00082</OBJECT_NAME><OBJECT_ID>2025-151N</OBJECT_ID><CENTER_NAME>EARTH</CENTER_NAME><REF_FRAME>TEME</REF_FRAME><TIME_SYSTEM>UTC</TIME_SYSTEM><MEAN_ELEMENT_THEORY>SGP4</MEAN_ELEMENT_THEORY></metadata><data><meanElements><EPOCH>2025-08-18T21:48:45.076320</EPOCH><MEAN_MOTION>15.36181843</MEAN_MOTION><ECCENTRICITY>.00049</ECCENTRICITY><INCLINATION>51.8794</INCLINATION><RA_OF_ASC_NODE>125.3442</RA_OF_ASC_NODE><ARG_OF_PERICENTER>257.6941</ARG_OF_PERICENTER><MEAN_ANOMALY>102.3497</MEAN_ANOMALY></meanElements><tleParameters><EPHEMERIS_TYPE>0</EPHEMERIS_TYPE><CLASSIFICATION_TYPE>U</CLASSIFICATION_TYPE><NORAD_CAT_ID>64828</NORAD_CAT_ID><ELEMENT_SET_NO>999</ELEMENT_SET_NO><REV_AT_EPOCH>516</REV_AT_EPOCH><BSTAR>.35829E-3</BSTAR><MEAN_MOTION_DOT>.12465E-3</MEAN_MOTION_DOT><MEAN_MOTION_DDOT>0</MEAN_MOTION_DDOT></tleParameters></data></segment></body></omm>
<omm id="CCSDS_OMM_VERS" version="2.0">
<header><CREATION_DATE/><ORIGINATOR/></header><body><segment><metadata><OBJECT_NAME>KUIPER-00083</OBJECT_NAME><OBJECT_ID>2025-151P</OBJECT_ID><CENTER_NAME>EARTH</CENTER_NAME><REF_FRAME>TEME</REF_FRAME><TIME_SYSTEM>UTC</TIME_SYSTEM><MEAN_ELEMENT_THEORY>SGP4</MEAN_ELEMENT_THEORY></metadata><data><meanElements><EPOCH>2025-08-18T22:00:49.534272</EPOCH><MEAN_MOTION>15.35854217</MEAN_MOTION><ECCENTRICITY>.000513</ECCENTRICITY><INCLINATION>51.8754</INCLINATION><RA_OF_ASC_NODE>125.3930</RA_OF_ASC_NODE><ARG_OF_PERICENTER>266.4867</ARG_OF_PERICENTER><MEAN_ANOMALY>93.5532</MEAN_ANOMALY></meanElements><tleParameters><EPHEMERIS_TYPE>0</EPHEMERIS_TYPE><CLASSIFICATION_TYPE>U</CLASSIFICATION_TYPE><NORAD_CAT_ID>64829</NORAD_CAT_ID><ELEMENT_SET_NO>999</ELEMENT_SET_NO><REV_AT_EPOCH>635</REV_AT_EPOCH><BSTAR>.11195E-2</BSTAR><MEAN_MOTION_DOT>.39497E-3</MEAN_MOTION_DOT><MEAN_MOTION_DDOT>0</MEAN_MOTION_DDOT></tleParameters></data></segment></body></omm>
<omm id="CCSDS_OMM_VERS" version="2.0">
<header><CREATION_DATE/><ORIGINATOR/></header><body><segment><metadata><OBJECT_NAME>KUIPER-00084</OBJECT_NAME><OBJECT_ID>2025-151Q</OBJECT_ID><CENTER_NAME>EARTH</CENTER_NAME><REF_FRAME>TEME</REF_FRAME><TIME_SYSTEM>UTC</TIME_SYSTEM><MEAN_ELEMENT_THEORY>SGP4</MEAN_ELEMENT_THEORY></metadata><data><meanElements><EPOCH>2025-08-19T00:00:02.000160</EPOCH><MEAN_MOTION>15.16826720</MEAN_MOTION><ECCENTRICITY>.0006954</ECCENTRICITY><INCLINATION>51.8893</INCLINATION><RA_OF_ASC_NODE>126.5785</RA_OF_ASC_NODE><ARG_OF_PERICENTER>254.5507</ARG_OF_PERICENTER><MEAN_ANOMALY>121.6429</MEAN_ANOMALY></meanElements><tleParameters><EPHEMERIS_TYPE>0</EPHEMERIS_TYPE><CLASSIFICATION_TYPE>U</CLASSIFICATION_TYPE><NORAD_CAT_ID>64830</NORAD_CAT_ID><ELEMENT_SET_NO>999</ELEMENT_SET_NO><REV_AT_EPOCH>515</REV_AT_EPOCH><BSTAR>-.2232E-3</BSTAR><MEAN_MOTION_DOT>-.4761E-4</MEAN_MOTION_DOT><MEAN_MOTION_DDOT>0</MEAN_MOTION_DDOT></tleParameters></data></segment></body></omm>
<omm id="CCSDS_OMM_VERS" version="2.0">
<header><CREATION_DATE/><ORIGINATOR/></header><body><segment><metadata><OBJECT_NAME>KUIPER-00085</OBJECT_NAME><OBJECT_ID>2025-151R</OBJECT_ID><CENTER_NAME>EARTH</CENTER_NAME><REF_FRAME>TEME</REF_FRAME><TIME_SYSTEM>UTC</TIME_SYSTEM><MEAN_ELEMENT_THEORY>SGP4</MEAN_ELEMENT_THEORY></metadata><data><meanElements><EPOCH>2025-08-18T21:44:44.621664</EPOCH><MEAN_MOTION>15.36347464</MEAN_MOTION><ECCENTRICITY>.0005516</ECCENTRICITY><INCLINATION>51.8793</INCLINATION><RA_OF_ASC_NODE>125.3273</RA_OF_ASC_NODE><ARG_OF_PERICENTER>251.7898</ARG_OF_PERICENTER><MEAN_ANOMALY>108.2489</MEAN_ANOMALY></meanElements><tleParameters><EPHEMERIS_TYPE>0</EPHEMERIS_TYPE><CLASSIFICATION_TYPE>U</CLASSIFICATION_TYPE><NORAD_CAT_ID>64831</NORAD_CAT_ID><ELEMENT_SET_NO>999</ELEMENT_SET_NO><REV_AT_EPOCH>516</REV_AT_EPOCH><BSTAR>.8936E-3</BSTAR><MEAN_MOTION_DOT>.31925E-3</MEAN_MOTION_DOT><MEAN_MOTION_DDOT>0</MEAN_MOTION_DDOT></tleParameters></data></segment></body></omm>
<omm id="CCSDS_OMM_VERS" version="2.0">
<header><CREATION_DATE/><ORIGINATOR/></header><body><segment><metadata><OBJECT_NAME>KUIPER-00086</OBJECT_NAME><OBJECT_ID>2025-151S</OBJECT_ID><CENTER_NAME>EARTH</CENTER_NAME><REF_FRAME>TEME</REF_FRAME><TIME_SYSTEM>UTC</TIME_SYSTEM><MEAN_ELEMENT_THEORY>SGP4</MEAN_ELEMENT_THEORY></metadata><data><meanElements><EPOCH>2025-08-19T14:00:01.999872</EPOCH><MEAN_MOTION>15.34316602</MEAN_MOTION><ECCENTRICITY>.0006111</ECCENTRICITY><INCLINATION>51.8788</INCLINATION><RA_OF_ASC_NODE>122.2537</RA_OF_ASC_NODE><ARG_OF_PERICENTER>274.8964</ARG_OF_PERICENTER><MEAN_ANOMALY>133.2614</MEAN_ANOMALY></meanElements><tleParameters><EPHEMERIS_TYPE>0</EPHEMERIS_TYPE><CLASSIFICATION_TYPE>U</CLASSIFICATION_TYPE><NORAD_CAT_ID>64832</NORAD_CAT_ID><ELEMENT_SET_NO>999</ELEMENT_SET_NO><REV_AT_EPOCH>525</REV_AT_EPOCH><BSTAR>.17808E-2</BSTAR><MEAN_MOTION_DOT>.60198E-3</MEAN_MOTION_DOT><MEAN_MOTION_DDOT>0</MEAN_MOTION_DDOT></tleParameters></data></segment></body></omm>
<omm id="CCSDS_OMM_VERS" version="2.0">
<header><CREATION_DATE/><ORIGINATOR/></header><body><segment><metadata><OBJECT_NAME>KUIPER-00087</OBJECT_NAME><OBJECT_ID>2025-151T</OBJECT_ID><CENTER_NAME>EARTH</CENTER_NAME><REF_FRAME>TEME</REF_FRAME><TIME_SYSTEM>UTC</TIME_SYSTEM><MEAN_ELEMENT_THEORY>SGP4</MEAN_ELEMENT_THEORY></metadata><data><meanElements><EPOCH>2025-08-18T23:25:49.755648</EPOCH><MEAN_MOTION>15.36032908</MEAN_MOTION><ECCENTRICITY>.000498</ECCENTRICITY><INCLINATION>51.8790</INCLINATION><RA_OF_ASC_NODE>125.0482</RA_OF_ASC_NODE><ARG_OF_PERICENTER>256.2402</ARG_OF_PERICENTER><MEAN_ANOMALY>103.8030</MEAN_ANOMALY></meanElements><tleParameters><EPHEMERIS_TYPE>0</EPHEMERIS_TYPE><CLASSIFICATION_TYPE>U</CLASSIFICATION_TYPE><NORAD_CAT_ID>64833</NORAD_CAT_ID><ELEMENT_SET_NO>999</ELEMENT_SET_NO><REV_AT_EPOCH>517</REV_AT_EPOCH><BSTAR>.49291E-3</BSTAR><MEAN_MOTION_DOT>.17222E-3</MEAN_MOTION_DOT><MEAN_MOTION_DDOT>0</MEAN_MOTION_DDOT></tleParameters></data></segment></body></omm>

</ndm>
